{
  "norad_id": 49281,
  "name": "ONEWEB-0349",
  "history": [
    {
      "epoch": "2026-03-28T20:23:43.859616Z",
      "apogee_km": 1183.0305872940662,
      "perigee_km": 1180.5188822193104,
      "latitude_deg": 4.699748168851446e-05,
      "longitude_deg": 158.2850032941201,
      "height_km": 1184.636604231476,
      "semi_major_axis_km": 7559.911734756688,
      "eccentricity": 0.00016612,
      "inclination_deg": 87.9147,
      "raan_deg": 290.4821,
      "arg_perigee_deg": 88.2441,
      "mean_anomaly_deg": 271.8883,
      "mean_motion_rev_day": 13.20771456
    },
    {
      "epoch": "2026-03-29T01:51:00.015264Z",
      "apogee_km": 1183.021776704638,
      "perigee_km": 1180.5270059455015,
      "latitude_deg": -2.8160578546346272e-05,
      "longitude_deg": 76.19837750276857,
      "height_km": 1184.643333389067,
      "semi_major_axis_km": 7559.911391325069,
      "eccentricity": 0.000165,
      "inclination_deg": 87.9147,
      "raan_deg": 290.4368,
      "arg_perigee_deg": 88.5557,
      "mean_anomaly_deg": 271.5765,
      "mean_motion_rev_day": 13.20771546
    },
    {
      "epoch": "2026-03-30T01:29:10.111776Z",
      "apogee_km": 1183.0352547826778,
      "perigee_km": 1180.5132683858137,
      "latitude_deg": -3.082634542388453e-05,
      "longitude_deg": 80.48860745466257,
      "height_km": 1184.6350664707597,
      "semi_major_axis_km": 7559.911261584246,
      "eccentricity": 0.0001668,
      "inclination_deg": 87.9146,
      "raan_deg": 290.2398,
      "arg_perigee_deg": 88.2029,
      "mean_anomaly_deg": 271.9295,
      "mean_motion_rev_day": 13.2077158
    },
    {
      "epoch": "2026-03-30T01:29:10.112640Z",
      "apogee_km": 1183.0351035844533,
      "perigee_km": 1180.5134195840392,
      "latitude_deg": -2.8536877599086574e-05,
      "longitude_deg": 80.48860392774884,
      "height_km": 1184.6350712148487,
      "semi_major_axis_km": 7559.911261584246,
      "eccentricity": 0.00016678,
      "inclination_deg": 87.9146,
      "raan_deg": 290.2398,
      "arg_perigee_deg": 88.2029,
      "mean_anomaly_deg": 271.9295,
      "mean_motion_rev_day": 13.2077158
    },
    {
      "epoch": "2026-03-30T12:23:42.503424Z",
      "apogee_km": 1183.040226491621,
      "perigee_km": 1180.5132497255208,
      "latitude_deg": -6.927031592233305e-05,
      "longitude_deg": -83.6851752279255,
      "height_km": 1184.638422772864,
      "semi_major_axis_km": 7559.913738108571,
      "eccentricity": 0.00016713,
      "inclination_deg": 87.9146,
      "raan_deg": 290.149,
      "arg_perigee_deg": 88.2464,
      "mean_anomaly_deg": 271.886,
      "mean_motion_rev_day": 13.20770931
    },
    {
      "epoch": "2026-03-30T19:40:04.043136Z",
      "apogee_km": 1183.0368502557585,
      "perigee_km": 1180.514107461563,
      "latitude_deg": 6.247469282609193e-05,
      "longitude_deg": 166.8658039761395,
      "height_km": 1184.6392729053143,
      "semi_major_axis_km": 7559.9124788586605,
      "eccentricity": 0.00016685,
      "inclination_deg": 87.9145,
      "raan_deg": 290.0884,
      "arg_perigee_deg": 88.34,
      "mean_anomaly_deg": 271.7925,
      "mean_motion_rev_day": 13.20771261
    },
    {
      "epoch": "2026-03-31T12:01:52.519584Z",
      "apogee_km": 1183.038456661221,
      "perigee_km": 1180.5101199299625,
      "latitude_deg": -8.269519710321018e-05,
      "longitude_deg": -79.39440922731241,
      "height_km": 1184.6426599272945,
      "semi_major_axis_km": 7559.9112882955915,
      "eccentricity": 0.00016722,
      "inclination_deg": 87.9144,
      "raan_deg": 289.9522,
      "arg_perigee_deg": 88.5505,
      "mean_anomaly_deg": 271.5819,
      "mean_motion_rev_day": 13.20771573
    },
    {
      "epoch": "2026-04-01T18:56:24.047808Z",
      "apogee_km": 1183.0385767529588,
      "perigee_km": 1180.5090305980484,
      "latitude_deg": 4.9353325907296e-06,
      "longitude_deg": 175.44745044178077,
      "height_km": 1184.6528580724337,
      "semi_major_axis_km": 7559.910803675503,
      "eccentricity": 0.0001673,
      "inclination_deg": 87.9142,
      "raan_deg": 289.6948,
      "arg_perigee_deg": 89.0359,
      "mean_anomaly_deg": 271.0966,
      "mean_motion_rev_day": 13.207717
    },
    {
      "epoch": "2026-04-02T18:34:34.043232Z",
      "apogee_km": 1183.0447662085571,
      "perigee_km": 1180.5016124208714,
      "latitude_deg": 5.228733505603521e-07,
      "longitude_deg": 179.7384029434901,
      "height_km": 1184.6571879902515,
      "semi_major_axis_km": 7559.9101893147135,
      "eccentricity": 0.0001682,
      "inclination_deg": 87.9142,
      "raan_deg": 289.4981,
      "arg_perigee_deg": 89.2645,
      "mean_anomaly_deg": 270.8681,
      "mean_motion_rev_day": 13.20771861
    },
    {
      "epoch": "2026-04-02T22:12:44.766432Z",
      "apogee_km": 1183.0539388476564,
      "perigee_km": 1180.4890130999293,
      "latitude_deg": -6.488711966721713e-05,
      "longitude_deg": 125.01408265165782,
      "height_km": 1184.6555859446491,
      "semi_major_axis_km": 7559.9084759737925,
      "eccentricity": 0.00016964,
      "inclination_deg": 87.9141,
      "raan_deg": 289.4678,
      "arg_perigee_deg": 89.2764,
      "mean_anomaly_deg": 270.8563,
      "mean_motion_rev_day": 13.2077231
    },
    {
      "epoch": "2026-04-03T14:34:33.269664Z",
      "apogee_km": 1183.046396503577,
      "perigee_km": 1180.5002187119744,
      "latitude_deg": -2.2000627709913476e-05,
      "longitude_deg": -121.24633654959543,
      "height_km": 1184.6551305680928,
      "semi_major_axis_km": 7559.910307607775,
      "eccentricity": 0.0001684,
      "inclination_deg": 87.9141,
      "raan_deg": 289.3315,
      "arg_perigee_deg": 89.1675,
      "mean_anomaly_deg": 270.9651,
      "mean_motion_rev_day": 13.2077183
    },
    {
      "epoch": "2026-04-04T01:29:05.517024Z",
      "apogee_km": 1183.0571314712888,
      "perigee_km": 1180.486308911899,
      "latitude_deg": -9.56779073451286e-06,
      "longitude_deg": 74.58048484345946,
      "height_km": 1184.6572539406704,
      "semi_major_axis_km": 7559.908720191594,
      "eccentricity": 0.00017003,
      "inclination_deg": 87.9138,
      "raan_deg": 289.2407,
      "arg_perigee_deg": 89.3423,
      "mean_anomaly_deg": 270.7905,
      "mean_motion_rev_day": 13.20772246
    },
    {
      "epoch": "2026-04-05T13:50:53.282976Z",
      "apogee_km": 1183.0788775576057,
      "perigee_km": 1180.4669286860762,
      "latitude_deg": -2.2507538521520467e-05,
      "longitude_deg": -112.66492871531469,
      "height_km": 1184.6845046375875,
      "semi_major_axis_km": 7559.909903121841,
      "eccentricity": 0.00017275,
      "inclination_deg": 87.9139,
      "raan_deg": 288.9377,
      "arg_perigee_deg": 90.4981,
      "mean_anomaly_deg": 269.635,
      "mean_motion_rev_day": 13.20771936
    },
    {
      "epoch": "2026-04-05T19:18:09.525024Z",
      "apogee_km": 1183.0723705506498,
      "perigee_km": 1180.4778087214854,
      "latitude_deg": 9.474426198396199e-06,
      "longitude_deg": 165.24778800176568,
      "height_km": 1184.686626229555,
      "semi_major_axis_km": 7559.912089636067,
      "eccentricity": 0.0001716,
      "inclination_deg": 87.914,
      "raan_deg": 288.8921,
      "arg_perigee_deg": 90.4979,
      "mean_anomaly_deg": 269.6351,
      "mean_motion_rev_day": 13.20771363
    },
    {
      "epoch": "2026-04-05T22:56:20.232672Z",
      "apogee_km": 1183.0829331929926,
      "perigee_km": 1180.4628196280264,
      "latitude_deg": 1.533634083632158e-05,
      "longitude_deg": 110.5235348929228,
      "height_km": 1184.677340165376,
      "semi_major_axis_km": 7559.909876410509,
      "eccentricity": 0.00017329,
      "inclination_deg": 87.9139,
      "raan_deg": 288.8618,
      "arg_perigee_deg": 90.1851,
      "mean_anomaly_deg": 269.9481,
      "mean_motion_rev_day": 13.20771943
    },
    {
      "epoch": "2026-04-07T11:18:07.894080Z",
      "apogee_km": 1183.0838746207764,
      "perigee_km": 1180.4587720545815,
      "latitude_deg": 7.842805447278009e-05,
      "longitude_deg": -76.72094113425283,
      "height_km": 1184.6842044584266,
      "semi_major_axis_km": 7559.908323337679,
      "eccentricity": 0.00017362,
      "inclination_deg": 87.9141,
      "raan_deg": 288.5593,
      "arg_perigee_deg": 90.5527,
      "mean_anomaly_deg": 269.5806,
      "mean_motion_rev_day": 13.2077235
    },
    {
      "epoch": "2026-04-08T12:45:23.233824Z",
      "apogee_km": 1183.0799236534485,
      "perigee_km": 1180.462532226772,
      "latitude_deg": 3.6722627810285805e-05,
      "longitude_deg": -99.79213079343062,
      "height_km": 1184.6843697572397,
      "semi_major_axis_km": 7559.90822794011,
      "eccentricity": 0.00017311,
      "inclination_deg": 87.914,
      "raan_deg": 288.3474,
      "arg_perigee_deg": 90.5651,
      "mean_anomaly_deg": 269.5681,
      "mean_motion_rev_day": 13.20772375
    },
    {
      "epoch": "2026-04-09T12:23:33.152352Z",
      "apogee_km": 1183.0732664334773,
      "perigee_km": 1180.465098800475,
      "latitude_deg": 6.309148683094986e-06,
      "longitude_deg": -95.50106170573075,
      "height_km": 1184.6813958793757,
      "semi_major_axis_km": 7559.906182616976,
      "eccentricity": 0.0001725,
      "inclination_deg": 87.914,
      "raan_deg": 288.1505,
      "arg_perigee_deg": 90.5256,
      "mean_anomaly_deg": 269.6075,
      "mean_motion_rev_day": 13.20772911
    },
    {
      "epoch": "2026-04-10T12:01:43.240224Z",
      "apogee_km": 1183.0608366642646,
      "perigee_km": 1180.4859311875007,
      "latitude_deg": -4.22478950535306e-05,
      "longitude_deg": -91.21060046133688,
      "height_km": 1184.672293413231,
      "semi_major_axis_km": 7559.910383925882,
      "eccentricity": 0.0001703,
      "inclination_deg": 87.9139,
      "raan_deg": 287.9537,
      "arg_perigee_deg": 89.9385,
      "mean_anomaly_deg": 270.1943,
      "mean_motion_rev_day": 13.2077181
    }
  ]
}